{
    "links": {
        "self": "http://www.neowsapp.com/rest/v1/neo/3602577?api_key=iIulBulltgU6a56xZRHN4H3l9WmuAYTsLGpBGhQ2"
    },
    "id": "3602577",
    "neo_reference_id": "3602577",
    "name": "(2012 HE)",
    "designation": "2012 HE",
    "nasa_jpl_url": "http://ssd.jpl.nasa.gov/sbdb.cgi?sstr=3602577",
    "absolute_magnitude_h": 25.7,
    "estimated_diameter": {
        "kilometers": {
            "estimated_diameter_min": 0.0192555078,
            "estimated_diameter_max": 0.0430566244
        },
        "meters": {
            "estimated_diameter_min": 19.2555078188,
            "estimated_diameter_max": 43.0566244241
        },
        "miles": {
            "estimated_diameter_min": 0.0119648141,
            "estimated_diameter_max": 0.0267541378
        },
        "feet": {
            "estimated_diameter_min": 63.1742402722,
            "estimated_diameter_max": 141.2618956756
        }
    },
    "is_potentially_hazardous_asteroid": false,
    "close_approach_data": [
        {
            "close_approach_date": "2012-04-22",
            "close_approach_date_full": "2012-Apr-22 13:43",
            "epoch_date_close_approach": 1335102180000,
            "relative_velocity": {
                "kilometers_per_second": "9.1386805879",
                "kilometers_per_hour": "32899.2501165108",
                "miles_per_hour": "20442.3146071175"
            },
            "miss_distance": {
                "astronomical": "0.0177922221",
                "lunar": "6.9211743969",
                "kilometers": "2661678.528726927",
                "miles": "1653890.3458365126"
            },
            "orbiting_body": "Earth"
        }
    ],
    "orbital_data": {
        "orbit_id": "7",
        "orbit_determination_date": "2017-04-06 08:50:07",
        "first_observation_date": "2012-04-16",
        "last_observation_date": "2012-04-21",
        "data_arc_in_days": 5,
        "observations_used": 31,
        "orbit_uncertainty": "8",
        "minimum_orbit_intersection": ".0124656",
        "jupiter_tisserand_invariant": "3.465",
        "epoch_osculation": "2456036.5",
        "eccentricity": ".53862518799554",
        "semi_major_axis": "2.18247149202282",
        "inclination": "7.888429679214916",
        "ascending_node_longitude": "32.77820754316915",
        "orbital_period": "1177.663720392828",
        "perihelion_distance": "1.006937374337122",
        "perihelion_argument": "196.2376634388118",
        "aphelion_distance": "3.358005609708519",
        "perihelion_time": "2456053.266347203491",
        "mean_anomaly": "354.874695646357",
        "mean_motion": ".3056899807356861",
        "equinox": "J2000",
        "orbit_class": {
            "orbit_class_type": "APO",
            "orbit_class_description": "Near-Earth asteroid orbits which cross the Earth’s orbit similar to that of 1862 Apollo",
            "orbit_class_range": "a (semi-major axis) > 1.0 AU; q (perihelion) < 1.017 AU"
        }
    },
    "is_sentry_object": false
}